CCSDS_OMM_VERS = 2.0
CREATION_DATE  = 
ORIGINATOR     = 

OBJECT_NAME    = SL-16 R/B
OBJECT_ID      = 1998-043G
CENTER_NAME    = EARTH
REF_FRAME      = TEME
TIME_SYSTEM    = UTC
MEAN_ELEMENT_THEORY = SGP/SGP4

EPOCH          = 2026-02-03T11:48:08.904672
MEAN_MOTION    = 14.26041088
ECCENTRICITY   = .00108497
INCLINATION    = 98.8199
RA_OF_ASC_NODE = 347.6253
ARG_OF_PERICENTER = 111.2668
MEAN_ANOMALY   = 248.9671

EPHEMERIS_TYPE = 0
CLASSIFICATION_TYPE = U
NORAD_CAT_ID   = 25400
ELEMENT_SET_NO = 999
REV_AT_EPOCH   = 43411
BSTAR          = .48851927E-4
MEAN_MOTION_DOT = .72E-6
MEAN_MOTION_DDOT = 0

CCSDS_OMM_VERS = 2.0
CREATION_DATE  = 
ORIGINATOR     = 

OBJECT_NAME    = SL-16 R/B
OBJECT_ID      = 1998-045B
CENTER_NAME    = EARTH
REF_FRAME      = TEME
TIME_SYSTEM    = UTC
MEAN_ELEMENT_THEORY = SGP/SGP4

EPOCH          = 2026-02-04T02:14:00.377088
MEAN_MOTION    = 14.16185623
ECCENTRICITY   = .00051749
INCLINATION    = 71.0090
RA_OF_ASC_NODE = 252.2273
ARG_OF_PERICENTER = 71.1450
MEAN_ANOMALY   = 289.0234

EPHEMERIS_TYPE = 0
CLASSIFICATION_TYPE = U
NORAD_CAT_ID   = 25407
ELEMENT_SET_NO = 999
REV_AT_EPOCH   = 42234
BSTAR          = -.89401824E-4
MEAN_MOTION_DOT = -.225E-5
MEAN_MOTION_DDOT = 0

CCSDS_OMM_VERS = 2.0
CREATION_DATE  = 
ORIGINATOR     = 

OBJECT_NAME    = ISS (ZARYA)
OBJECT_ID      = 1998-067A
CENTER_NAME    = EARTH
REF_FRAME      = TEME
TIME_SYSTEM    = UTC
MEAN_ELEMENT_THEORY = SGP/SGP4

EPOCH          = 2026-02-04T00:25:30.395424
MEAN_MOTION    = 15.48378125
ECCENTRICITY   = .00111076
INCLINATION    = 51.6311
RA_OF_ASC_NODE = 238.8105
ARG_OF_PERICENTER = 61.9619
MEAN_ANOMALY   = 298.2491

EPHEMERIS_TYPE = 0
CLASSIFICATION_TYPE = U
NORAD_CAT_ID   = 25544
ELEMENT_SET_NO = 999
REV_AT_EPOCH   = 55111
BSTAR          = .1987377E-3
MEAN_MOTION_DOT = .10297E-3
MEAN_MOTION_DDOT = 0

CCSDS_OMM_VERS = 2.0
CREATION_DATE  = 
ORIGINATOR     = 

OBJECT_NAME    = CZ-4B R/B
OBJECT_ID      = 1999-025C
CENTER_NAME    = EARTH
REF_FRAME      = TEME
TIME_SYSTEM    = UTC
MEAN_ELEMENT_THEORY = SGP/SGP4

EPOCH          = 2026-02-04T03:45:10.824192
MEAN_MOTION    = 14.18258435
ECCENTRICITY   = .00381885
INCLINATION    = 98.6690
RA_OF_ASC_NODE = 80.2221
ARG_OF_PERICENTER = 81.7806
MEAN_ANOMALY   = 347.0353

EPHEMERIS_TYPE = 0
CLASSIFICATION_TYPE = U
NORAD_CAT_ID   = 25732
ELEMENT_SET_NO = 999
REV_AT_EPOCH   = 38341
BSTAR          = .55102946E-4
MEAN_MOTION_DOT = .71E-6
MEAN_MOTION_DDOT = 0

CCSDS_OMM_VERS = 2.0
CREATION_DATE  = 
ORIGINATOR     = 

OBJECT_NAME    = OKEAN-O
OBJECT_ID      = 1999-039A
CENTER_NAME    = EARTH
REF_FRAME      = TEME
TIME_SYSTEM    = UTC
MEAN_ELEMENT_THEORY = SGP/SGP4

EPOCH          = 2026-02-04T03:00:01.136160
MEAN_MOTION    = 14.80277591
ECCENTRICITY   = .00019389
INCLINATION    = 97.9514
RA_OF_ASC_NODE = 95.3454
ARG_OF_PERICENTER = 90.1970
MEAN_ANOMALY   = 269.9464

EPHEMERIS_TYPE = 0
CLASSIFICATION_TYPE = U
NORAD_CAT_ID   = 25860
ELEMENT_SET_NO = 999
REV_AT_EPOCH   = 42942
BSTAR          = .10555657E-3
MEAN_MOTION_DOT = .751E-5
MEAN_MOTION_DDOT = 0

CCSDS_OMM_VERS = 2.0
CREATION_DATE  = 
ORIGINATOR     = 

OBJECT_NAME    = SL-16 R/B
OBJECT_ID      = 1999-039B
CENTER_NAME    = EARTH
REF_FRAME      = TEME
TIME_SYSTEM    = UTC
MEAN_ELEMENT_THEORY = SGP/SGP4

EPOCH          = 2026-02-04T03:16:44.280768
MEAN_MOTION    = 14.81682171
ECCENTRICITY   = .00149972
INCLINATION    = 98.0036
RA_OF_ASC_NODE = 94.2706
ARG_OF_PERICENTER = 11.7387
MEAN_ANOMALY   = 348.4172

EPHEMERIS_TYPE = 0
CLASSIFICATION_TYPE = U
NORAD_CAT_ID   = 25861
ELEMENT_SET_NO = 999
REV_AT_EPOCH   = 43189
BSTAR          = .9349621E-4
MEAN_MOTION_DOT = .683E-5
MEAN_MOTION_DDOT = 0

CCSDS_OMM_VERS = 2.0
CREATION_DATE  = 
ORIGINATOR     = 

OBJECT_NAME    = DELTA 2 R/B
OBJECT_ID      = 1999-041E
CENTER_NAME    = EARTH
REF_FRAME      = TEME
TIME_SYSTEM    = UTC
MEAN_ELEMENT_THEORY = SGP/SGP4

EPOCH          = 2026-02-04T07:26:50.212032
MEAN_MOTION    = 14.11696794
ECCENTRICITY   = .05024798
INCLINATION    = 51.7645
RA_OF_ASC_NODE = 74.5741
ARG_OF_PERICENTER = 249.8098
MEAN_ANOMALY   = 104.8130

EPHEMERIS_TYPE = 0
CLASSIFICATION_TYPE = U
NORAD_CAT_ID   = 25876
ELEMENT_SET_NO = 999
REV_AT_EPOCH   = 35831
BSTAR          = .41542102E-3
MEAN_MOTION_DOT = .235E-4
MEAN_MOTION_DDOT = 0

CCSDS_OMM_VERS = 2.0
CREATION_DATE  = 
ORIGINATOR     = 

OBJECT_NAME    = HELIOS 1B
OBJECT_ID      = 1999-064A
CENTER_NAME    = EARTH
REF_FRAME      = TEME
TIME_SYSTEM    = UTC
MEAN_ELEMENT_THEORY = SGP/SGP4

EPOCH          = 2026-02-04T06:49:45.882048
MEAN_MOTION    = 14.87555404
ECCENTRICITY   = .00018562
INCLINATION    = 98.1731
RA_OF_ASC_NODE = 296.5415
ARG_OF_PERICENTER = 120.9836
MEAN_ANOMALY   = 239.1561

EPHEMERIS_TYPE = 0
CLASSIFICATION_TYPE = U
NORAD_CAT_ID   = 25977
ELEMENT_SET_NO = 999
REV_AT_EPOCH   = 68029
BSTAR          = .25353669E-3
MEAN_MOTION_DOT = .2243E-4
MEAN_MOTION_DDOT = 0

CCSDS_OMM_VERS = 2.0
CREATION_DATE  = 
ORIGINATOR     = 

OBJECT_NAME    = TERRA
OBJECT_ID      = 1999-068A
CENTER_NAME    = EARTH
REF_FRAME      = TEME
TIME_SYSTEM    = UTC
MEAN_ELEMENT_THEORY = SGP/SGP4

EPOCH          = 2026-02-04T07:02:49.831584
MEAN_MOTION    = 14.60976977
ECCENTRICITY   = .00010098
INCLINATION    = 97.9662
RA_OF_ASC_NODE = 89.9921
ARG_OF_PERICENTER = 304.5752
MEAN_ANOMALY   = 117.8078

EPHEMERIS_TYPE = 0
CLASSIFICATION_TYPE = U
NORAD_CAT_ID   = 25994
ELEMENT_SET_NO = 999
REV_AT_EPOCH   = 39020
BSTAR          = .11976217E-3
MEAN_MOTION_DOT = .543E-5
MEAN_MOTION_DDOT = 0

CCSDS_OMM_VERS = 2.0
CREATION_DATE  = 
ORIGINATOR     = 

OBJECT_NAME    = SL-16 R/B
OBJECT_ID      = 2000-006B
CENTER_NAME    = EARTH
REF_FRAME      = TEME
TIME_SYSTEM    = UTC
MEAN_ELEMENT_THEORY = SGP/SGP4

EPOCH          = 2026-02-03T21:18:23.818752
MEAN_MOTION    = 14.15820095
ECCENTRICITY   = .00184818
INCLINATION    = 71.0026
RA_OF_ASC_NODE = 168.9085
ARG_OF_PERICENTER = 237.4366
MEAN_ANOMALY   = 122.4973

EPHEMERIS_TYPE = 0
CLASSIFICATION_TYPE = U
NORAD_CAT_ID   = 26070
ELEMENT_SET_NO = 999
REV_AT_EPOCH   = 34377
BSTAR          = .76063723E-4
MEAN_MOTION_DOT = .102E-5
MEAN_MOTION_DDOT = 0

CCSDS_OMM_VERS = 2.0
CREATION_DATE  = 
ORIGINATOR     = 

OBJECT_NAME    = TITAN 4B R/B
OBJECT_ID      = 2000-047B
CENTER_NAME    = EARTH
REF_FRAME      = TEME
TIME_SYSTEM    = UTC
MEAN_ELEMENT_THEORY = SGP/SGP4

EPOCH          = 2026-02-04T07:10:46.236000
MEAN_MOTION    = 15.09278644
ECCENTRICITY   = .00368427
INCLINATION    = 67.9898
RA_OF_ASC_NODE = 134.3830
ARG_OF_PERICENTER = 76.7349
MEAN_ANOMALY   = 283.7905

EPHEMERIS_TYPE = 0
CLASSIFICATION_TYPE = U
NORAD_CAT_ID   = 26474
ELEMENT_SET_NO = 999
REV_AT_EPOCH   = 38787
BSTAR          = .2686004E-3
MEAN_MOTION_DOT = .4223E-4
MEAN_MOTION_DDOT = 0

CCSDS_OMM_VERS = 2.0
CREATION_DATE  = 
ORIGINATOR     = 

OBJECT_NAME    = ENVISAT
OBJECT_ID      = 2002-009A
CENTER_NAME    = EARTH
REF_FRAME      = TEME
TIME_SYSTEM    = UTC
MEAN_ELEMENT_THEORY = SGP/SGP4

EPOCH          = 2026-02-04T07:38:03.654240
MEAN_MOTION    = 14.39023851
ECCENTRICITY   = .00013005
INCLINATION    = 98.3673
RA_OF_ASC_NODE = 349.7222
ARG_OF_PERICENTER = 91.4636
MEAN_ANOMALY   = 30.1069

EPHEMERIS_TYPE = 0
CLASSIFICATION_TYPE = U
NORAD_CAT_ID   = 27386
ELEMENT_SET_NO = 999
REV_AT_EPOCH   = 25437
BSTAR          = .65831631E-4
MEAN_MOTION_DOT = .16E-5
MEAN_MOTION_DDOT = 0

