SL-16 R/B               
1 25400U 98043G   26034.49176973  .00000072  00000+0  48852-4 0  9995
2 25400  98.8199 347.6253 0010849 111.2668 248.9671 14.26041088434118
SL-16 R/B               
1 25407U 98045B   26035.09305992 -.00000225  00000+0 -89402-4 0  9994
2 25407  71.0090 252.2273 0005174  71.1450 289.0234 14.16185623422345
ISS (ZARYA)             
1 25544U 98067A   26035.01771291  .00010297  00000+0  19874-3 0  9994
2 25544  51.6311 238.8105 0011107  61.9619 298.2491 15.48378125551110
CZ-4B R/B               
1 25732U 99025C   26035.15637528  .00000071  00000+0  55103-4 0  9992
2 25732  98.6690  80.2221 0038188  81.7806 347.0353 14.18258435383417
OKEAN-O                 
1 25860U 99039A   26035.12501315  .00000751  00000+0  10556-3 0  9997
2 25860  97.9514  95.3454 0001938  90.1970 269.9464 14.80277591429420
SL-16 R/B               
1 25861U 99039B   26035.13662362  .00000683  00000+0  93496-4 0  9998
2 25861  98.0036  94.2706 0014997  11.7387 348.4172 14.81682171431898
DELTA 2 R/B             
1 25876U 99041E   26035.31030338  .00002350  00000+0  41542-3 0  9996
2 25876  51.7645  74.5741 0502479 249.8098 104.8130 14.11696794358318
HELIOS 1B               
1 25977U 99064A   26035.28455882  .00002243  00000+0  25354-3 0  9998
2 25977  98.1731 296.5415 0001856 120.9836 239.1561 14.87555404680297
TERRA                   
1 25994U 99068A   26035.29363231  .00000543  00000+0  11976-3 0  9994
2 25994  97.9662  89.9921 0001009 304.5752 117.8078 14.60976977390206
SL-16 R/B               
1 26070U 00006B   26034.88777568  .00000102  00000+0  76064-4 0  9991
2 26070  71.0026 168.9085 0018481 237.4366 122.4973 14.15820095343770
TITAN 4B R/B            
1 26474U 00047B   26035.29914625  .00004223  00000+0  26860-3 0  9993
2 26474  67.9898 134.3830 0036842  76.7349 283.7905 15.09278644387876
ENVISAT                 
1 27386U 02009A   26035.31809785  .00000160  00000+0  65832-4 0  9998
2 27386  98.3673 349.7222 0001300  91.4636  30.1069 14.39023851254372
